STARLINK-5036           
1 53917U 22119AH  26163.00003472  .00606013  00000+0  65247-2 0  9995
2 53917  53.2177 238.1260 0000957  71.6202 231.6407 15.61194156  5943
SES-20                  
1 53960U 22123A   26162.88797140 -.00000085  00000+0  00000+0 0  9996
2 53960   0.0347  75.6140 0001770   6.5684  34.6215  1.00271689 13487
STARLINK-5147           
1 53985U 22125X   26162.24983267 -.00000199  00000+0  56140-5 0  9990
2 53985  53.1607 154.2867 0001276  83.4308 276.6828 15.08836244203587
STARLINK-5145           
1 54008U 22125AW  26162.65548627  .00000036  00000+0  20336-4 0  9995
2 54008  53.1596 141.8717 0001342  88.7148 271.3997 15.08831462203790
EUTELSAT HOTBIRD 13F    
1 54048U 22134A   26162.91093499  .00000103  00000+0  00000+0 0  9996
2 54048   0.0449 293.4140 0001971  62.6097 245.1684  1.00271172 13321
STARLINK-5146           
1 54073U 22136Y   26162.58234545  .00000140  00000+0  26901-4 0  9992
2 54073  53.1613 277.2165 0001242  85.3388 274.7745 15.08834133201098
STARLINK-5193           
1 54095U 22136AW  26162.51840564  .00000154  00000+0  27791-4 0  9996
2 54095  53.1622 272.5150 0001170  91.8587 268.2538 15.08833092201155
ONEWEB-0503             
1 54121U 22138J   26162.90954108 -.00000004  00000+0 -43418-4 0  9991
2 54121  87.9175 306.0116 0001945  90.1876 269.9480 13.19724221176126
ONEWEB-0522             
1 54140U 22138AD  26162.91112115 -.00000038  00000+0 -12658-3 0  9995
2 54140  87.9176 306.0078 0001682  96.5553 263.5772 13.19724491176117
STARLINK-5161           
1 54163U 22141G   26162.67393531 -.00003705  00000+0 -21468-3 0  9993
2 54163  53.1611 302.3132 0001228  80.1172 279.9958 15.08855059200045
STARLINK-5162           
1 54184U 22141AD  26162.69332906  .00000456  00000+0  46731-4 0  9996
2 54184  53.1609 302.4179 0001049  89.6888 270.4224 15.08831456200043
STARLINK-5264           
1 54206U 22141BB  26162.56948925  .00000583  00000+0  54757-4 0  9999
2 54206  53.1593 257.4514 0001151  84.9110 275.2013 15.08829942200666
JILIN-1 GAOFEN 03D54    
1 54254U 22155D   26162.69798123  .00292499  35590-4  75912-3 0  9995
2 54254  97.6099 315.0883 0004382 265.6475  94.4300 15.95038453199420
ONEWEB-0582             
1 54649U 22166H   26162.75678193 -.00000072  00000+0 -20592-3 0  9999
2 54649  87.9253 245.0545 0002226  88.4198 271.7191 13.21826481170809
ONEWEB-0604             
1 54668U 22166AC  26162.77023077 -.00000097  00000+0 -26655-3 0  9990
2 54668  87.9264 245.0507 0002002 101.5115 258.6244 13.21827184170723
JILIN-1 GAOFEN 03D47    
1 54692U 22167L   26162.96546126  .00010292  00000+0  31794-3 0  9990
2 54692  97.6923 332.3271 0008641 131.9755 228.2225 15.33705841194548
