[ {"OBJECT_NAME": "STARLINK-5036", "OBJECT_ID": "2022-119AH", "EPOCH": "2026-06-12T00:00:02.999808", "MEAN_MOTION": 15.61194156, "ECCENTRICITY": 9.574e-05, "INCLINATION": 53.2177, "RA_OF_ASC_NODE": 238.126, "ARG_OF_PERICENTER": 71.6202, "MEAN_ANOMALY": 231.6407, "EPHEMERIS_TYPE": 0, "CLASSIFICATION_TYPE": "U", "NORAD_CAT_ID": 53917, "ELEMENT_SET_NO": 999, "REV_AT_EPOCH": 594, "BSTAR": 0.006524661, "MEAN_MOTION_DOT": 0.00606013, "MEAN_MOTION_DDOT": 0}, {"OBJECT_NAME": "SES-20", "OBJECT_ID": "2022-123A", "EPOCH": "2026-06-11T21:18:40.728960", "MEAN_MOTION": 1.00271689, "ECCENTRICITY": 0.00017706, "INCLINATION": 0.0347, "RA_OF_ASC_NODE": 75.614, "ARG_OF_PERICENTER": 6.5684, "MEAN_ANOMALY": 34.6215, "EPHEMERIS_TYPE": 0, "CLASSIFICATION_TYPE": "U", "NORAD_CAT_ID": 53960, "ELEMENT_SET_NO": 999, "REV_AT_EPOCH": 1348, "BSTAR": 0, "MEAN_MOTION_DOT": -8.5e-07, "MEAN_MOTION_DDOT": 0}, {"OBJECT_NAME": "STARLINK-5147", "OBJECT_ID": "2022-125X", "EPOCH": "2026-06-11T05:59:45.542688", "MEAN_MOTION": 15.08836244, "ECCENTRICITY": 0.0001276, "INCLINATION": 53.1607, "RA_OF_ASC_NODE": 154.2867, "ARG_OF_PERICENTER": 83.4308, "MEAN_ANOMALY": 276.6828, "EPHEMERIS_TYPE": 0, "CLASSIFICATION_TYPE": "U", "NORAD_CAT_ID": 53985, "ELEMENT_SET_NO": 999, "REV_AT_EPOCH": 20358, "BSTAR": 5.614e-06, "MEAN_MOTION_DOT": -1.99e-06, "MEAN_MOTION_DDOT": 0}, {"OBJECT_NAME": "STARLINK-5145", "OBJECT_ID": "2022-125AW", "EPOCH": "2026-06-11T15:43:54.013728", "MEAN_MOTION": 15.08831462, "ECCENTRICITY": 0.00013424, "INCLINATION": 53.1596, "RA_OF_ASC_NODE": 141.8717, "ARG_OF_PERICENTER": 88.7148, "MEAN_ANOMALY": 271.3997, "EPHEMERIS_TYPE": 0, "CLASSIFICATION_TYPE": "U", "NORAD_CAT_ID": 54008, "ELEMENT_SET_NO": 999, "REV_AT_EPOCH": 20379, "BSTAR": 2.0335697e-05, "MEAN_MOTION_DOT": 3.6e-07, "MEAN_MOTION_DDOT": 0}, {"OBJECT_NAME": "EUTELSAT HOTBIRD 13F", "OBJECT_ID": "2022-134A", "EPOCH": "2026-06-11T21:51:44.783136", "MEAN_MOTION": 1.00271172, "ECCENTRICITY": 0.00019718, "INCLINATION": 0.0449, "RA_OF_ASC_NODE": 293.414, "ARG_OF_PERICENTER": 62.6097, "MEAN_ANOMALY": 245.1684, "EPHEMERIS_TYPE": 0, "CLASSIFICATION_TYPE": "U", "NORAD_CAT_ID": 54048, "ELEMENT_SET_NO": 999, "REV_AT_EPOCH": 1332, "BSTAR": 0, "MEAN_MOTION_DOT": 1.03e-06, "MEAN_MOTION_DDOT": 0}, {"OBJECT_NAME": "STARLINK-5146", "OBJECT_ID": "2022-136Y", "EPOCH": "2026-06-11T13:58:34.646880", "MEAN_MOTION": 15.08834133, "ECCENTRICITY": 0.0001242, "INCLINATION": 53.1613, "RA_OF_ASC_NODE": 277.2165, "ARG_OF_PERICENTER": 85.3388, "MEAN_ANOMALY": 274.7745, "EPHEMERIS_TYPE": 0, "CLASSIFICATION_TYPE": "U", "NORAD_CAT_ID": 54073, "ELEMENT_SET_NO": 999, "REV_AT_EPOCH": 20109, "BSTAR": 2.6901e-05, "MEAN_MOTION_DOT": 1.4e-06, "MEAN_MOTION_DDOT": 0}, {"OBJECT_NAME": "STARLINK-5193", "OBJECT_ID": "2022-136AW", "EPOCH": "2026-06-11T12:26:30.247296", "MEAN_MOTION": 15.08833092, "ECCENTRICITY": 0.000117, "INCLINATION": 53.1622, "RA_OF_ASC_NODE": 272.515, "ARG_OF_PERICENTER": 91.8587, "MEAN_ANOMALY": 268.2538, "EPHEMERIS_TYPE": 0, "CLASSIFICATION_TYPE": "U", "NORAD_CAT_ID": 54095, "ELEMENT_SET_NO": 999, "REV_AT_EPOCH": 20115, "BSTAR": 2.7791e-05, "MEAN_MOTION_DOT": 1.54e-06, "MEAN_MOTION_DDOT": 0}, {"OBJECT_NAME": "ONEWEB-0503", "OBJECT_ID": "2022-138J", "EPOCH": "2026-06-11T21:49:44.349312", "MEAN_MOTION": 13.19724221, "ECCENTRICITY": 0.00019456, "INCLINATION": 87.9175, "RA_OF_ASC_NODE": 306.0116, "ARG_OF_PERICENTER": 90.1876, "MEAN_ANOMALY": 269.948, "EPHEMERIS_TYPE": 0, "CLASSIFICATION_TYPE": "U", "NORAD_CAT_ID": 54121, "ELEMENT_SET_NO": 999, "REV_AT_EPOCH": 17612, "BSTAR": -4.341822e-05, "MEAN_MOTION_DOT": -4e-08, "MEAN_MOTION_DDOT": 0}, {"OBJECT_NAME": "ONEWEB-0522", "OBJECT_ID": "2022-138AD", "EPOCH": "2026-06-11T21:52:00.867360", "MEAN_MOTION": 13.19724491, "ECCENTRICITY": 0.0001682, "INCLINATION": 87.9176, "RA_OF_ASC_NODE": 306.0078, "ARG_OF_PERICENTER": 96.5553, "MEAN_ANOMALY": 263.5772, "EPHEMERIS_TYPE": 0, "CLASSIFICATION_TYPE": "U", "NORAD_CAT_ID": 54140, "ELEMENT_SET_NO": 999, "REV_AT_EPOCH": 17611, "BSTAR": -0.0001265848, "MEAN_MOTION_DOT": -3.8e-07, "MEAN_MOTION_DDOT": 0}, {"OBJECT_NAME": "STARLINK-5161", "OBJECT_ID": "2022-141G", "EPOCH": "2026-06-11T16:10:28.010784", "MEAN_MOTION": 15.08855059, "ECCENTRICITY": 0.00012281, "INCLINATION": 53.1611, "RA_OF_ASC_NODE": 302.3132, "ARG_OF_PERICENTER": 80.1172, "MEAN_ANOMALY": 279.9958, "EPHEMERIS_TYPE": 0, "CLASSIFICATION_TYPE": "U", "NORAD_CAT_ID": 54163, "ELEMENT_SET_NO": 999, "REV_AT_EPOCH": 20004, "BSTAR": -0.00021468273, "MEAN_MOTION_DOT": -3.705e-05, "MEAN_MOTION_DDOT": 0}, {"OBJECT_NAME": "STARLINK-5162", "OBJECT_ID": "2022-141AD", "EPOCH": "2026-06-11T16:38:23.630784", "MEAN_MOTION": 15.08831456, "ECCENTRICITY": 0.00010499, "INCLINATION": 53.1609, "RA_OF_ASC_NODE": 302.4179, "ARG_OF_PERICENTER": 89.6888, "MEAN_ANOMALY": 270.4224, "EPHEMERIS_TYPE": 0, "CLASSIFICATION_TYPE": "U", "NORAD_CAT_ID": 54184, "ELEMENT_SET_NO": 999, "REV_AT_EPOCH": 20004, "BSTAR": 4.6730646e-05, "MEAN_MOTION_DOT": 4.56e-06, "MEAN_MOTION_DDOT": 0}, {"OBJECT_NAME": "STARLINK-5264", "OBJECT_ID": "2022-141BB", "EPOCH": "2026-06-11T13:40:03.871200", "MEAN_MOTION": 15.08829942, "ECCENTRICITY": 0.0001151, "INCLINATION": 53.1593, "RA_OF_ASC_NODE": 257.4514, "ARG_OF_PERICENTER": 84.911, "MEAN_ANOMALY": 275.2013, "EPHEMERIS_TYPE": 0, "CLASSIFICATION_TYPE": "U", "NORAD_CAT_ID": 54206, "ELEMENT_SET_NO": 999, "REV_AT_EPOCH": 20066, "BSTAR": 5.4757e-05, "MEAN_MOTION_DOT": 5.83e-06, "MEAN_MOTION_DDOT": 0}, {"OBJECT_NAME": "JILIN-1 GAOFEN 03D54", "OBJECT_ID": "2022-155D", "EPOCH": "2026-06-11T16:45:05.578272", "MEAN_MOTION": 15.95038453, "ECCENTRICITY": 0.00043824, "INCLINATION": 97.6099, "RA_OF_ASC_NODE": 315.0883, "ARG_OF_PERICENTER": 265.6475, "MEAN_ANOMALY": 94.43, "EPHEMERIS_TYPE": 0, "CLASSIFICATION_TYPE": "U", "NORAD_CAT_ID": 54254, "ELEMENT_SET_NO": 999, "REV_AT_EPOCH": 19942, "BSTAR": 0.00075912185, "MEAN_MOTION_DOT": 0.00292499, "MEAN_MOTION_DDOT": 3.5589927e-05}, {"OBJECT_NAME": "ONEWEB-0582", "OBJECT_ID": "2022-166H", "EPOCH": "2026-06-11T18:09:45.958752", "MEAN_MOTION": 13.21826481, "ECCENTRICITY": 0.00022262, "INCLINATION": 87.9253, "RA_OF_ASC_NODE": 245.0545, "ARG_OF_PERICENTER": 88.4198, "MEAN_ANOMALY": 271.7191, "EPHEMERIS_TYPE": 0, "CLASSIFICATION_TYPE": "U", "NORAD_CAT_ID": 54649, "ELEMENT_SET_NO": 999, "REV_AT_EPOCH": 17080, "BSTAR": -0.00020591897, "MEAN_MOTION_DOT": -7.2e-07, "MEAN_MOTION_DDOT": 0}, {"OBJECT_NAME": "ONEWEB-0604", "OBJECT_ID": "2022-166AC", "EPOCH": "2026-06-11T18:29:07.938528", "MEAN_MOTION": 13.21827184, "ECCENTRICITY": 0.00020022, "INCLINATION": 87.9264, "RA_OF_ASC_NODE": 245.0507, "ARG_OF_PERICENTER": 101.5115, "MEAN_ANOMALY": 258.6244, "EPHEMERIS_TYPE": 0, "CLASSIFICATION_TYPE": "U", "NORAD_CAT_ID": 54668, "ELEMENT_SET_NO": 999, "REV_AT_EPOCH": 17072, "BSTAR": -0.00026654547, "MEAN_MOTION_DOT": -9.7e-07, "MEAN_MOTION_DDOT": 0}, {"OBJECT_NAME": "JILIN-1 GAOFEN 03D47", "OBJECT_ID": "2022-167L", "EPOCH": "2026-06-11T23:10:15.852864", "MEAN_MOTION": 15.33705841, "ECCENTRICITY": 0.0008641, "INCLINATION": 97.6923, "RA_OF_ASC_NODE": 332.3271, "ARG_OF_PERICENTER": 131.9755, "MEAN_ANOMALY": 228.2225, "EPHEMERIS_TYPE": 0, "CLASSIFICATION_TYPE": "U", "NORAD_CAT_ID": 54692, "ELEMENT_SET_NO": 999, "REV_AT_EPOCH": 19454, "BSTAR": 0.00031794487, "MEAN_MOTION_DOT": 0.00010292, "MEAN_MOTION_DDOT": 0}]